{"type": "FeatureCollection", "features": [ {"type": "Feature", "properties": {"norad_id": 30827, "name": "FENGYUN 1C DEB", "group": "fengyun-1c-debris", "lat": 76.28076773837172, "lon": -175.02841064631247, "alt_km": 764.8406552646366, "timestamp": "2025-12-05T09:41:19.408786+00:00", "meta": {"OBJECT_NAME": "FENGYUN 1C DEB", "OBJECT_ID": "1999-025AVM", "EPOCH": "2025-12-03T05:26:11.474016", "MEAN_MOTION": 14.37538922, "ECCENTRICITY": 0.0043378, "INCLINATION": 99.0025, "RA_OF_ASC_NODE": 322.1987, "ARG_OF_PERICENTER": 207.4055, "MEAN_ANOMALY": 152.4842, "EPHEMERIS_TYPE": 0, "CLASSIFICATION_TYPE": "U", "NORAD_CAT_ID": 30827, "ELEMENT_SET_NO": 999, "REV_AT_EPOCH": 96412, "BSTAR": 0.0034983, "MEAN_MOTION_DOT": 0.00010565, "MEAN_MOTION_DDOT": 0}, "tle": {"line1": "1 30827U 99025AVM 25337.22652169  .00010565  00000+0  34983-2 0  9993", "line2": "2 30827  99.0025 322.1987 0043378 207.4055 152.4842 14.37538922964129"}}, "geometry": {"type": "Point", "coordinates": [-175.02841064631247, 76.28076773837172]}}, {"type": "Feature", "properties": {"norad_id": 30828, "name": "FENGYUN 1C DEB", "group": "fengyun-1c-debris", "lat": 10.84222669493568, "lon": -92.29294645101078, "alt_km": 517.2160529324929, "timestamp": "2025-12-05T09:41:19.408796+00:00", "meta": {"OBJECT_NAME": "FENGYUN 1C DEB", "OBJECT_ID": "1999-025AVN", "EPOCH": "2025-12-04T13:29:17.549088", "MEAN_MOTION": 14.76543176, "ECCENTRICITY": 0.0210188, "INCLINATION": 98.3768, "RA_OF_ASC_NODE": 85.2163, "ARG_OF_PERICENTER": 204.7768, "MEAN_ANOMALY": 173.9939, "EPHEMERIS_TYPE": 0, "CLASSIFICATION_TYPE": "U", "NORAD_CAT_ID": 30828, "ELEMENT_SET_NO": 999, "REV_AT_EPOCH": 98536, "BSTAR": 0.0036746, "MEAN_MOTION_DOT": 0.00037027, "MEAN_MOTION_DDOT": 0}, "tle": {"line1": "1 30828U 99025AVN 25338.56200867  .00037027  00000+0  36746-2 0  9997", "line2": "2 30828  98.3768  85.2163 0210188 204.7768 173.9939 14.76543176985369"}}, "geometry": {"type": "Point", "coordinates": [-92.29294645101078, 10.84222669493568]}}, {"type": "Feature", "properties": {"norad_id": 30829, "name": "FENGYUN 1C DEB", "group": "fengyun-1c-debris", "lat": -29.283272443704682, "lon": 147.2764634060638, "alt_km": 891.6721125044078, "timestamp": "2025-12-05T09:41:19.408806+00:00", "meta": {"OBJECT_NAME": "FENGYUN 1C DEB", "OBJECT_ID": "1999-025AVP", "EPOCH": "2025-12-04T05:25:12.671904", "MEAN_MOTION": 14.08633618, "ECCENTRICITY": 0.0036376, "INCLINATION": 98.7751, "RA_OF_ASC_NODE": 331.0996, "ARG_OF_PERICENTER": 358.8254, "MEAN_ANOMALY": 1.2824, "EPHEMERIS_TYPE": 0, "CLASSIFICATION_TYPE": "U", "NORAD_CAT_ID": 30829, "ELEMENT_SET_NO": 999, "REV_AT_EPOCH": 96313, "BSTAR": 0.00069875, "MEAN_MOTION_DOT": 1.166e-05, "MEAN_MOTION_DDOT": 0}, "tle": {"line1": "1 30829U 99025AVP 25338.22584111  .00001166  00000+0  69875-3 0  9993", "line2": "2 30829  98.7751 331.0996 0036376 358.8254   1.2824 14.08633618963131"}}, "geometry": {"type": "Point", "coordinates": [147.2764634060638, -29.283272443704682]}}, {"type": "Feature", "properties": {"norad_id": 30830, "name": "FENGYUN 1C DEB", "group": "fengyun-1c-debris", "lat": -30.758214094100172, "lon": -26.756834491353878, "alt_km": 868.2661940282815, "timestamp": "2025-12-05T09:41:19.408816+00:00", "meta": {"OBJECT_NAME": "FENGYUN 1C DEB", "OBJECT_ID": "1999-025AVQ", "EPOCH": "2025-12-03T17:53:27.674016", "MEAN_MOTION": 14.12214861, "ECCENTRICITY": 0.00302942, "INCLINATION": 98.729, "RA_OF_ASC_NODE": 326.3825, "ARG_OF_PERICENTER": 214.7541, "MEAN_ANOMALY": 328.1577, "EPHEMERIS_TYPE": 0, "CLASSIFICATION_TYPE": "U", "NORAD_CAT_ID": 30830, "ELEMENT_SET_NO": 999, "REV_AT_EPOCH": 96472, "BSTAR": 0.00037853681, "MEAN_MOTION_DOT": 6.56e-06, "MEAN_MOTION_DDOT": 0}, "tle": {"line1": "1 30830U 99025AVQ 25337.74545919  .00000656  00000+0  37854-3 0  9999", "line2": "2 30830  98.7290 326.3825 0030294 214.7541 328.1577 14.12214861964723"}}, "geometry": {"type": "Point", "coordinates": [-26.756834491353878, -30.758214094100172]}}, {"type": "Feature", "properties": {"norad_id": 30831, "name": "FENGYUN 1C DEB", "group": "fengyun-1c-debris", "lat": 33.08097555655708, "lon": 125.4831286237547, "alt_km": 748.8210608687723, "timestamp": "2025-12-05T09:41:19.408825+00:00", "meta": {"OBJECT_NAME": "FENGYUN 1C DEB", "OBJECT_ID": "1999-025AVR", "EPOCH": "2025-12-03T05:30:54.696672", "MEAN_MOTION": 14.31052649, "ECCENTRICITY": 0.0055822, "INCLINATION": 99.3279, "RA_OF_ASC_NODE": 129.2978, "ARG_OF_PERICENTER": 61.3241, "MEAN_ANOMALY": 299.3536, "EPHEMERIS_TYPE": 0, "CLASSIFICATION_TYPE": "U", "NORAD_CAT_ID": 30831, "ELEMENT_SET_NO": 999, "REV_AT_EPOCH": 65114, "BSTAR": 0.00059432, "MEAN_MOTION_DOT": 1.543e-05, "MEAN_MOTION_DDOT": 0}, "tle": {"line1": "1 30831U 99025AVR 25337.22979973  .00001543  00000+0  59432-3 0  9996", "line2": "2 30831  99.3279 129.2978 0055822  61.3241 299.3536 14.31052649651142"}}, "geometry": {"type": "Point", "coordinates": [125.4831286237547, 33.08097555655708]}}, {"type": "Feature", "properties": {"norad_id": 30833, "name": "FENGYUN 1C DEB", "group": "fengyun-1c-debris", "lat": 12.701399375947949, "lon": -53.18337520462853, "alt_km": 784.248959071102, "timestamp": "2025-12-05T09:41:19.408835+00:00", "meta": {"OBJECT_NAME": "FENGYUN 1C DEB", "OBJECT_ID": "1999-025AVT", "EPOCH": "2025-11-30T16:08:15.979488", "MEAN_MOTION": 14.26699546, "ECCENTRICITY": 0.00328082, "INCLINATION": 99.8434, "RA_OF_ASC_NODE": 119.2595, "ARG_OF_PERICENTER": 214.1796, "MEAN_ANOMALY": 145.7269, "EPHEMERIS_TYPE": 0, "CLASSIFICATION_TYPE": "U", "NORAD_CAT_ID": 30833, "ELEMENT_SET_NO": 999, "REV_AT_EPOCH": 64239, "BSTAR": 0.00062547884, "MEAN_MOTION_DOT": 1.467e-05, "MEAN_MOTION_DDOT": 0}, "tle": {"line1": "1 30833U 99025AVT 25334.67240717  .00001467  00000+0  62548-3 0  9998", "line2": "2 30833  99.8434 119.2595 0032808 214.1796 145.7269 14.26699546642399"}}, "geometry": {"type": "Point", "coordinates": [-53.18337520462853, 12.701399375947949]}}, {"type": "Feature", "properties": {"norad_id": 30836, "name": "FENGYUN 1C DEB", "group": "fengyun-1c-debris", "lat": -10.85743493558381, "lon": 13.941199688372329, "alt_km": 854.6759690903373, "timestamp": "2025-12-05T09:41:19.408845+00:00", "meta": {"OBJECT_NAME": "FENGYUN 1C DEB", "OBJECT_ID": "1999-025AVW", "EPOCH": "2025-12-03T08:25:06.102048", "MEAN_MOTION": 14.11914464, "ECCENTRICITY": 0.002548, "INCLINATION": 98.7461, "RA_OF_ASC_NODE": 10.2475, "ARG_OF_PERICENTER": 272.1161, "MEAN_ANOMALY": 87.7093, "EPHEMERIS_TYPE": 0, "CLASSIFICATION_TYPE": "U", "NORAD_CAT_ID": 30836, "ELEMENT_SET_NO": 999, "REV_AT_EPOCH": 61871, "BSTAR": 0.00048653, "MEAN_MOTION_DOT": 8.49e-06, "MEAN_MOTION_DDOT": 0}, "tle": {"line1": "1 30836U 99025AVW 25337.35076507  .00000849  00000+0  48653-3 0  9997", "line2": "2 30836  98.7461  10.2475 0025480 272.1161  87.7093 14.11914464618717"}}, "geometry": {"type": "Point", "coordinates": [13.941199688372329, -10.85743493558381]}}, {"type": "Feature", "properties": {"norad_id": 30837, "name": "FENGYUN 1C DEB", "group": "fengyun-1c-debris", "lat": -35.72573797722656, "lon": -27.846374797312603, "alt_km": 873.3694055372862, "timestamp": "2025-12-05T09:41:19.408855+00:00", "meta": {"OBJECT_NAME": "FENGYUN 1C DEB", "OBJECT_ID": "1999-025AVX", "EPOCH": "2025-12-03T22:28:15.762720", "MEAN_MOTION": 14.14505153, "ECCENTRICITY": 0.0032551, "INCLINATION": 98.6779, "RA_OF_ASC_NODE": 324.4213, "ARG_OF_PERICENTER": 158.2174, "MEAN_ANOMALY": 257.4584, "EPHEMERIS_TYPE": 0, "CLASSIFICATION_TYPE": "U", "NORAD_CAT_ID": 30837, "ELEMENT_SET_NO": 999, "REV_AT_EPOCH": 96694, "BSTAR": 0.00053231, "MEAN_MOTION_DOT": 9.83e-06, "MEAN_MOTION_DDOT": 0}, "tle": {"line1": "1 30837U 99025AVX 25337.93629355  .00000983  00000+0  53231-3 0  9994", "line2": "2 30837  98.6779 324.4213 0032551 158.2174 257.4584 14.14505153966940"}}, "geometry": {"type": "Point", "coordinates": [-27.846374797312603, -35.72573797722656]}}, {"type": "Feature", "properties": {"norad_id": 30838, "name": "FENGYUN 1C DEB", "group": "fengyun-1c-debris", "lat": 4.018258860803108, "lon": 73.41125339436294, "alt_km": 712.4882946716898, "timestamp": "2025-12-05T09:41:19.408865+00:00", "meta": {"OBJECT_NAME": "FENGYUN 1C DEB", "OBJECT_ID": "1999-025AVY", "EPOCH": "2025-12-03T10:25:34.508352", "MEAN_MOTION": 14.47446344, "ECCENTRICITY": 0.00336158, "INCLINATION": 99.0424, "RA_OF_ASC_NODE": 250.6671, "ARG_OF_PERICENTER": 188.2519, "MEAN_ANOMALY": 171.8122, "EPHEMERIS_TYPE": 0, "CLASSIFICATION_TYPE": "U", "NORAD_CAT_ID": 30838, "ELEMENT_SET_NO": 999, "REV_AT_EPOCH": 97179, "BSTAR": 0.0035152134, "MEAN_MOTION_DOT": 0.00012969, "MEAN_MOTION_DDOT": 0}, "tle": {"line1": "1 30838U 99025AVY 25337.43442718  .00012969  00000+0  35152-2 0  9994", "line2": "2 30838  99.0424 250.6671 0033615 188.2519 171.8122 14.47446344971797"}}, "geometry": {"type": "Point", "coordinates": [73.41125339436294, 4.018258860803108]}}, {"type": "Feature", "properties": {"norad_id": 30840, "name": "FENGYUN 1C DEB", "group": "fengyun-1c-debris", "lat": -53.938479293406694, "lon": 2.138073433386369, "alt_km": 688.8840486966774, "timestamp": "2025-12-05T09:41:19.408876+00:00", "meta": {"OBJECT_NAME": "FENGYUN 1C DEB", "OBJECT_ID": "1999-025AWA", "EPOCH": "2025-12-03T11:54:36.630720", "MEAN_MOTION": 14.60955759, "ECCENTRICITY": 0.02188017, "INCLINATION": 98.023, "RA_OF_ASC_NODE": 349.1194, "ARG_OF_PERICENTER": 39.5754, "MEAN_ANOMALY": 322.1192, "EPHEMERIS_TYPE": 0, "CLASSIFICATION_TYPE": "U", "NORAD_CAT_ID": 30840, "ELEMENT_SET_NO": 999, "REV_AT_EPOCH": 72996, "BSTAR": 0.00095118466, "MEAN_MOTION_DOT": 6.501e-05, "MEAN_MOTION_DDOT": 0}, "tle": {"line1": "1 30840U 99025AWA 25337.49625730  .00006501  00000+0  95118-3 0  9994", "line2": "2 30840  98.0230 349.1194 0218801  39.5754 322.1192 14.60955759729967"}}, "geometry": {"type": "Point", "coordinates": [2.138073433386369, -53.938479293406694]}}]}